      2.10          N: GNSS NAV DATA                        RINEX VERSION / TYPE
fic2rin                                 06/15/2019 00:18:23 PGM / RUN BY / DATE
                                                            END OF HEADER
28 19  6 14 15 59 44.0 7.674512453377e-04-2.273736754432e-13 0.000000000000e+00
    5.900000000000e+01 4.856250000000e+01 4.338037839546e-09 2.723071479063e+00
    2.419576048851e-06 1.902441307902e-02 1.462176442146e-06 5.153705301285e+03
    4.895840000000e+05 3.427267074585e-07 1.041394950028e+00-1.266598701477e-07
    9.818258738115e-01 3.594375000000e+02-1.464400800868e+00-7.970331996320e-09
    3.750156209059e-11 1.000000000000e+00 2.057000000000e+03 0.000000000000e+00
    2.400000000000e+00 0.000000000000e+00-1.117587089539e-08 5.900000000000e+01
    4.837500000000e+05 4.000000000000e+00
29 19  6 14 15 59 44.0 1.765545457602e-04-9.549694368616e-12 0.000000000000e+00
    2.000000000000e+00-1.210625000000e+02 4.035525238682e-09 2.409527291466e+00
   -6.230548024178e-06 1.153555465862e-03 6.593763828278e-06 5.153746477127e+03
    4.895840000000e+05 3.539025783539e-08 2.063713688222e+00-9.126961231232e-08
    9.854979254643e-01 2.605937500000e+02 1.746625735184e+00-7.978546624206e-09
   -4.332323315798e-10 1.000000000000e+00 2.057000000000e+03 0.000000000000e+00
    2.400000000000e+00 0.000000000000e+00-9.778887033463e-09 2.000000000000e+00
    4.844400000000e+05 4.000000000000e+00
24 19  6 14 15 59 44.0-6.745569407940e-05-5.684341886081e-13 0.000000000000e+00
    4.000000000000e+00 1.012500000000e+02 4.791628161975e-09 4.257280327100e-03
    5.314126610756e-06 8.339394815266e-03 1.083314418793e-05 5.153723176956e+03
    4.895840000000e+05 9.499490261078e-08-1.477881317403e-01 1.303851604462e-07
    9.388997363255e-01 1.627500000000e+02 6.032526208302e-01-8.242486189777e-09
    5.750239520557e-11 1.000000000000e+00 2.057000000000e+03 0.000000000000e+00
    2.400000000000e+00 0.000000000000e+00 2.793967723846e-09 4.000000000000e+00
    4.852200000000e+05 4.000000000000e+00
 8 19  6 14 15 59 44.0-1.474190503359e-04-1.477928890381e-12 0.000000000000e+00
    1.000000000000e+01-1.087500000000e+02 4.527331438670e-09 2.060989859106e+00
   -5.410984158516e-06 4.390785703436e-03 5.090609192848e-06 5.153752750397e+03
    4.895840000000e+05 5.587935447693e-08 1.984735646286e+00 8.381903171539e-08
    9.701325882020e-01 2.873125000000e+02-2.115556862921e-01-8.173554747077e-09
   -3.732298322349e-10 1.000000000000e+00 2.057000000000e+03 0.000000000000e+00
    2.400000000000e+00 0.000000000000e+00 5.122274160385e-09 1.000000000000e+01
    4.888200000000e+05 4.000000000000e+00
18 19  6 14 15 59 44.0 6.188731640577e-05 3.069544618484e-12 0.000000000000e+00
    4.200000000000e+01-3.865625000000e+01 4.574119101849e-09-5.284705029748e-01
   -1.937150955200e-06 1.543683325872e-02 1.105666160583e-05 5.153696887970e+03
    4.895840000000e+05-1.192092895508e-07 2.996099632581e+00 9.685754776001e-08
    9.547804142767e-01 1.639687500000e+02 1.396220962505e+00-8.235343035093e-09
    2.378670509746e-10 1.000000000000e+00 2.057000000000e+03 0.000000000000e+00
    2.400000000000e+00 0.000000000000e+00-5.587935447693e-09 4.200000000000e+01
    4.888200000000e+05 4.000000000000e+00
29 19  6 14 17 59 44.0 1.764856278896e-04-9.549694368616e-12 0.000000000000e+00
    3.000000000000e+00-1.137187500000e+02 4.150887186827e-09-2.823734036771e+00
   -5.824491381645e-06 1.155000180006e-03 6.366521120071e-06 5.153743902206e+03
    4.967840000000e+05 4.284083843231e-08 2.063655326568e+00 1.136213541031e-07
    9.854953887643e-01 2.707812500000e+02 1.746835720982e+00-7.981403886080e-09
   -2.632252501025e-10 1.000000000000e+00 2.057000000000e+03 0.000000000000e+00
    2.400000000000e+00 0.000000000000e+00-9.778887033463e-09 3.000000000000e+00
    4.899600000000e+05 4.000000000000e+00
16 19  6 14 17 59 44.0-4.807487130165e-05-3.069544618484e-12 0.000000000000e+00
    2.900000000000e+01 5.071875000000e+01 4.444470844336e-09-2.431033989546e+00
    2.343207597733e-06 1.077475026250e-02 1.465901732445e-06 5.153586908340e+03
    4.967840000000e+05 4.842877388000e-08 1.037381669808e+00-2.067536115646e-07
    9.828759183729e-01 3.648750000000e+02 5.819680141952e-01-8.228914195878e-09
    2.914407111040e-10 1.000000000000e+00 2.057000000000e+03 0.000000000000e+00
    2.400000000000e+00 0.000000000000e+00-1.071020960808e-08 2.900000000000e+01
    4.899600000000e+05 4.000000000000e+00
 1 19  6 14 18  0  0.0-4.110857844353e-05-9.663381206337e-12 0.000000000000e+00
    5.200000000000e+01-3.762500000000e+01 4.099456473103e-09 7.829947001750e-01
   -1.680105924606e-06 8.933505741879e-03 1.121684908867e-05 5.153655164719e+03
    4.968000000000e+05 1.676380634308e-08 3.051527448115e+00 1.210719347000e-07
    9.762649286672e-01 1.710625000000e+02 7.158951039275e-01-7.816397012881e-09
    1.957224383395e-10 1.000000000000e+00 2.057000000000e+03 0.000000000000e+00
    2.400000000000e+00 0.000000000000e+00 5.587935447693e-09 5.200000000000e+01
    4.899600000000e+05 4.000000000000e+00
 3 19  6 14 18  0  0.0 1.855427399278e-04-1.364242052659e-12 0.000000000000e+00
    6.700000000000e+01 1.650000000000e+01 4.873774440840e-09-1.769068007412e-01
    7.599592208862e-07 2.239902270958e-03 5.535781383514e-06 5.153761129379e+03
    4.968000000000e+05 1.117587089539e-08-2.189845267868e+00 2.980232238770e-08
    9.628708969234e-01 2.711562500000e+02 6.046506570297e-01-8.213199255573e-09
    2.003654888840e-10 1.000000000000e+00 2.057000000000e+03 0.000000000000e+00
    2.400000000000e+00 0.000000000000e+00 1.862645149231e-09 6.700000000000e+01
    4.899600000000e+05 4.000000000000e+00
 7 19  6 14 18  0  0.0-4.444224759936e-05-7.617018127348e-12 0.000000000000e+00
    7.000000000000e+01 8.678125000000e+01 4.422684222550e-09 1.807293237589e-01
    4.703179001808e-06 1.285080297384e-02 1.049041748047e-05 5.153750844955e+03
    4.968000000000e+05 3.352761268616e-08-8.163505811927e-02 2.570450305939e-07
    9.557643963835e-01 1.770625000000e+02-2.458765534254e+00-8.075693527908e-09
    9.286101089098e-11 1.000000000000e+00 2.057000000000e+03 0.000000000000e+00
    2.400000000000e+00 0.000000000000e+00-1.117587089539e-08 7.000000000000e+01
    4.899600000000e+05 4.000000000000e+00
 6 19  6 14 18  0  0.0 1.779603771865e-04-1.068656274583e-11 0.000000000000e+00
    6.800000000000e+01-3.809375000000e+01 3.925520656549e-09 9.856453378675e-01
   -2.076849341393e-06 1.502631232142e-03 1.097470521927e-05 5.153604606628e+03
    4.968000000000e+05 5.587935447693e-09 3.043250585316e+00-5.587935447693e-08
    9.759088704988e-01 1.768125000000e+02-1.073945326408e+00-7.651032981949e-09
    2.150089559860e-10 1.000000000000e+00 2.057000000000e+03 0.000000000000e+00
    2.400000000000e+00 0.000000000000e+00 4.190951585770e-09 6.800000000000e+01
    4.899600000000e+05 4.000000000000e+00
22 19  6 14 18  0  0.0-7.169623859227e-04-5.684341886081e-12 0.000000000000e+00
    6.100000000000e+01 2.265625000000e+01 5.622019893981e-09 2.117671516856e+00
    1.082196831703e-06 7.200921420008e-03 5.273148417473e-06 5.153774137497e+03
    4.968000000000e+05 1.061707735062e-07-2.263602659885e+00-2.421438694000e-08
    9.274481086907e-01 2.546562500000e+02-1.330693170792e+00-8.461781038574e-09
    2.271523189487e-10 1.000000000000e+00 2.057000000000e+03 0.000000000000e+00
    2.400000000000e+00 0.000000000000e+00-1.816079020500e-08 6.100000000000e+01
    4.899600000000e+05 4.000000000000e+00
27 19  6 14 18  0  0.0-1.578666269779e-04-1.011812855722e-11 0.000000000000e+00
    5.500000000000e+01-1.251562500000e+02 4.249819879199e-09 2.931408185283e+00
   -6.483867764473e-06 7.148787030019e-03 5.727633833885e-06 5.153647615433e+03
    4.968000000000e+05-6.705522537231e-08 1.996179447309e+00-7.078051567078e-08
    9.784307832723e-01 2.788750000000e+02 5.058928830292e-01-7.964260314838e-09
   -3.357282701443e-10 1.000000000000e+00 2.057000000000e+03 0.000000000000e+00
    2.400000000000e+00 0.000000000000e+00 1.396983861923e-09 5.500000000000e+01
    4.899600000000e+05 4.000000000000e+00
23 19  6 14 18  0  0.0-1.817848533392e-04 1.705302565824e-12 0.000000000000e+00
    4.200000000000e+01-4.150000000000e+01 5.015208903581e-09 1.579475078060e+00
   -2.199783921242e-06 1.330607419368e-02 8.594244718552e-06 5.153567789078e+03
    4.968000000000e+05-2.495944499969e-07-1.162635890669e+00-8.568167686462e-08
    9.429367128932e-01 2.101875000000e+02-2.248498522257e+00-8.320703733566e-09
   -6.700279093519e-10 1.000000000000e+00 2.057000000000e+03 0.000000000000e+00
    2.400000000000e+00 0.000000000000e+00-2.048909664154e-08 4.200000000000e+01
    4.899600000000e+05 4.000000000000e+00
14 19  6 14 18  0  0.0-7.608439773321e-05 1.705302565824e-12 0.000000000000e+00
    3.100000000000e+01-2.409375000000e+01 4.328394580722e-09 2.709307728422e+00
   -1.247972249985e-06 1.072167418897e-02 9.415671229362e-06 5.153710401535e+03
    4.968000000000e+05 1.210719347000e-07-1.064351192191e+00-9.126961231232e-08
    9.601932477429e-01 1.946250000000e+02-1.935797862002e+00-7.694249067786e-09
   -5.543088034723e-10 1.000000000000e+00 2.057000000000e+03 0.000000000000e+00
    2.400000000000e+00 0.000000000000e+00-9.778887033463e-09 3.100000000000e+01
    4.899600000000e+05 4.000000000000e+00
 9 19  6 14 18  0  0.0 3.916365094483e-04-7.730704965070e-12 0.000000000000e+00
    3.500000000000e+01-3.728125000000e+01 4.697695677881e-09-2.992023909166e+00
   -1.832842826843e-06 1.195739721879e-03 8.299946784973e-06 5.153655096054e+03
    4.968000000000e+05-8.009374141693e-08-1.157344817337e+00-1.061707735062e-07
    9.521303557311e-01 2.164062500000e+02 1.744054337744e+00-8.004619138803e-09
   -5.703809015111e-10 1.000000000000e+00 2.057000000000e+03 0.000000000000e+00
    2.400000000000e+00 0.000000000000e+00 1.396983861923e-09 3.500000000000e+01
    4.899600000000e+05 4.000000000000e+00
